     2.100          NAVIGATION                              RINEX VERSION / TYPE
fic2rin                                 05/13/2013 00:13:11 PGM / RUN BY / DATE
                                                            END OF HEADER
10 13  5 12 22  0  0.0 -.796229578555D-04 -.136424205266D-11  .000000000000D+00
     .230000000000D+02  .234375000000D+01  .470269588616D-08  .227254098109D+01
     .186264514923D-07  .123838897562D-01  .968575477600D-05  .515363383293D+04
     .792000000000D+05 -.931322574615D-07 -.149256857604D+00 -.258907675743D-06
     .944020101746D+00  .183750000000D+03  .801588451868D+00 -.793711632704D-08
    -.447875798682D-09  .100000000000D+01  .174000000000D+04  .000000000000D+00
     .240000000000D+01  .000000000000D+00 -.279396772385D-08  .230000000000D+02
     .720060000000D+05  .400000000000D+01
11 13  5 12 22  0  0.0 -.381233636290D-03 -.363797880709D-11  .000000000000D+00
     .550000000000D+02  .200937500000D+02  .651848580681D-08 -.132942991762D+01
     .118091702461D-05  .139519487275D-01  .494346022606D-05  .515367739677D+04
     .792000000000D+05  .257045030594D-06 -.150853062735D+01  .342726707458D-06
     .888436835075D+00  .243687500000D+03  .116279866517D+01 -.897894543769D-08
     .111433213069D-09  .100000000000D+01  .174000000000D+04  .000000000000D+00
     .240000000000D+01  .000000000000D+00 -.116415321827D-07  .550000000000D+02
     .720060000000D+05  .400000000000D+01
12 13  5 12 22  0  0.0  .133430585265D-03  .204636307899D-11  .000000000000D+00
     .760000000000D+02 -.112093750000D+03  .398409452496D-08 -.183897545547D+01
    -.577606260777D-05  .453279423527D-02  .753812491894D-05  .515357868958D+04
     .792000000000D+05  .707805156708D-07  .300686578215D+01 -.987201929092D-07
     .984273988220D+00  .246062500000D+03  .244327267589D+00 -.777639534665D-08
    -.639312344211D-10  .100000000000D+01  .174000000000D+04  .000000000000D+00
     .240000000000D+01  .000000000000D+00 -.121071934700D-07  .760000000000D+02
     .720060000000D+05  .400000000000D+01
13 13  5 12 22  0  0.0  .119854696095D-03 -.363797880709D-11  .000000000000D+00
     .790000000000D+02  .116281250000D+03  .388373320165D-08  .875694441171D+00
     .599026679993D-05  .519598333631D-02  .743195414543D-05  .515376005745D+04
     .792000000000D+05  .242143869400D-07  .980409381437D+00 -.102445483208D-06
     .981776990404D+00  .245281250000D+03  .210970715091D+01 -.786461330700D-08
     .287869133762D-09  .100000000000D+01  .174000000000D+04  .000000000000D+00
     .240000000000D+01  .000000000000D+00 -.111758708954D-07  .790000000000D+02
     .720060000000D+05  .400000000000D+01
14 13  5 12 22  0  0.0  .220924615860D-03 -.113686837722D-12  .000000000000D+00
     .440000000000D+02  .105562500000D+03  .404159692016D-08  .105043894074D+01
     .546127557755D-05  .685441237874D-02  .720471143723D-05  .515374918938D+04
     .792000000000D+05 -.119209289551D-06  .951255985687D+00  .316649675369D-07
     .974483186610D+00  .244500000000D+03 -.203552007499D+01 -.798640409436D-08
     .200365488884D-09  .100000000000D+01  .174000000000D+04  .000000000000D+00
     .240000000000D+01  .000000000000D+00 -.884756445885D-08  .440000000000D+02
     .720060000000D+05  .400000000000D+01
15 13  5 12 22  0  0.0 -.118871219456D-03 -.147792889038D-11  .000000000000D+00
     .430000000000D+02  .969375000000D+02  .476305554324D-08  .521995920140D+00
     .515021383762D-05  .538285123184D-02  .801123678684D-05  .515375857162D+04
     .792000000000D+05  .104308128357D-06  .851835408855D+00  .800937414169D-07
     .941200738229D+00  .214062500000D+03  .169794234943D+00 -.820319883902D-08
     .172864343351D-09  .100000000000D+01  .174000000000D+04  .000000000000D+00
     .240000000000D+01  .000000000000D+00 -.102445483208D-07  .430000000000D+02
     .720060000000D+05  .400000000000D+01
16 13  5 12 22  0  0.0 -.252143945545D-03  .227373675443D-12  .000000000000D+00
     .640000000000D+02 -.109875000000D+03  .396337937637D-08  .224684529902D+01
    -.553950667381D-05  .717016635463D-02  .850297510624D-05  .515364154434D+04
     .792000000000D+05 -.150874257088D-06  .302522829916D+01  .176951289177D-06
     .984979909098D+00  .230656250000D+03  .896852637055D-01 -.772960768347D-08
    -.161078138122D-09  .100000000000D+01  .174000000000D+04  .000000000000D+00
     .240000000000D+01  .000000000000D+00 -.102445483208D-07  .640000000000D+02
     .720060000000D+05  .400000000000D+01
17 13  5 12 22  0  0.0  .201514922082D-04 -.386535248253D-11  .000000000000D+00
     .510000000000D+02 -.180625000000D+02  .437482508617D-08  .121820747740D+01
    -.849366188049D-06  .831195048522D-02  .100284814835D-04  .515362818336D+04
     .792000000000D+05 -.132247805595D-06 -.222153806265D+01  .111758708954D-06
     .965216539772D+00  .192281250000D+03 -.219170746896D+01 -.791782980939D-08
     .336442585613D-09  .100000000000D+01  .174000000000D+04  .000000000000D+00
     .240000000000D+01  .000000000000D+00 -.102445483208D-07  .510000000000D+02
     .720060000000D+05  .400000000000D+01
18 13  5 12 22  0  0.0  .253367703408D-03  .193267624127D-11  .000000000000D+00
     .760000000000D+02 -.278125000000D+01  .491199031840D-08  .271276639738D+01
    -.178813934326D-06  .142683688318D-01  .954233109951D-05  .515360461426D+04
     .792000000000D+05  .614672899246D-07 -.165858138280D+00 -.152736902237D-06
     .927790324728D+00  .175656250000D+03 -.211097657906D+01 -.791497254752D-08
    -.415374444870D-09  .100000000000D+01  .174000000000D+04  .000000000000D+00
     .240000000000D+01  .000000000000D+00 -.111758708954D-07  .760000000000D+02
     .720060000000D+05  .400000000000D+01
19 13  5 12 22  0  0.0 -.372403301299D-03 -.306954461848D-11  .000000000000D+00
     .820000000000D+02 -.750000000000D+00  .455518974194D-08  .527174342927D+00
     .800937414169D-07  .925546174403D-02  .902265310287D-05  .515369722939D+04
     .792000000000D+05  .596046447754D-07 -.216954794368D+01  .139698386192D-06
     .962413224465D+00  .201343750000D+03  .297889613875D+00 -.800890503161D-08
     .328585115460D-09  .100000000000D+01  .174000000000D+04  .000000000000D+00
     .240000000000D+01  .000000000000D+00 -.149011611938D-07  .820000000000D+02
     .720060000000D+05  .400000000000D+01
20 13  5 12 22  0  0.0  .976943410933D-04  .204636307899D-11  .000000000000D+00
     .120000000000D+02  .181250000000D+01  .500627996023D-08 -.304218319055D+01
     .163912773132D-06  .542353710625D-02  .907480716705D-05  .515374627876D+04
     .792000000000D+05  .335276126862D-07 -.219289585583D+00  .000000000000D+00
     .928499926309D+00  .186218750000D+03  .129890322508D+01 -.804140638542D-08
    -.476091259683D-09  .100000000000D+01  .174000000000D+04  .000000000000D+00
     .240000000000D+01  .000000000000D+00 -.791624188423D-08  .120000000000D+02
     .720060000000D+05  .400000000000D+01
21 13  5 12 22  0  0.0 -.297146383673D-03 -.216004991671D-11  .000000000000D+00
     .540000000000D+02 -.375000000000D+00  .538415284301D-08 -.250459094716D+01
    -.176951289177D-06  .203525465913D-01  .467710196972D-05  .515368460846D+04
     .792000000000D+05  .260770320892D-06 -.121365966593D+01 -.122934579849D-06
     .931173195513D+00  .270531250000D+03 -.213851030652D+01 -.817105464294D-08
     .102504269714D-09  .100000000000D+01  .174000000000D+04  .000000000000D+00
     .240000000000D+01  .000000000000D+00 -.111758708954D-07  .540000000000D+02
     .720060000000D+05  .400000000000D+01
22 13  5 12 22  0  0.0  .167581718415D-03  .147792889038D-11  .000000000000D+00
     .186000000000D+03  .159375000000D+01  .509914097112D-08  .213758309441D+01
     .707805156708D-07  .656966038514D-02  .933744013309D-05  .515365213203D+04
     .792000000000D+05 -.558793544769D-08 -.163222555309D+00 -.128522515297D-06
     .925535428151D+00  .180156250000D+03 -.204465689224D+01 -.816176854185D-08
    -.414660129402D-09  .100000000000D+01  .174000000000D+04  .000000000000D+00
     .340000000000D+01  .000000000000D+00 -.172294676304D-07  .186000000000D+03
     .720060000000D+05  .400000000000D+01
23 13  5 12 22  0  0.0  .864043831825D-04 -.363797880709D-11  .000000000000D+00
     .660000000000D+02  .115718750000D+03  .443447042778D-08  .507751991509D-01
     .608712434769D-05  .850271515083D-02  .747852027416D-05  .515372022247D+04
     .792000000000D+05  .132247805595D-06  .892795612658D+00  .577419996262D-07
     .956095861436D+00  .232718750000D+03 -.289827597127D+01 -.816819738106D-08
     .232866842696D-09  .100000000000D+01  .174000000000D+04  .000000000000D+00
     .240000000000D+01  .000000000000D+00 -.200234353542D-07  .660000000000D+02
     .720060000000D+05  .400000000000D+01
24 13  5 12 22  0  0.0 -.621331855655D-05 -.682121026330D-12  .000000000000D+00
     .320000000000D+02  .113437500000D+02  .487270296764D-08 -.880594125400D+00
     .616535544395D-06  .928479479626D-03  .129453837872D-05  .515368200684D+04
     .792000000000D+05  .745058059692D-08  .191986090998D+01  .149011611938D-07
     .958742991220D+00  .353000000000D+03  .408297492532D+00 -.845928093443D-08
     .108575951196D-09  .100000000000D+01  .174000000000D+04  .000000000000D+00
     .240000000000D+01  .000000000000D+00  .279396772385D-08  .320000000000D+02
     .720060000000D+05  .400000000000D+01
25 13  5 12 22  0  0.0  .969981774688D-04  .420641299570D-11  .000000000000D+00
     .220000000000D+02 -.107375000000D+03  .418303138290D-08 -.273018042999D+01
    -.561773777008D-05  .261544343084D-02  .750273466110D-05  .515379064751D+04
     .792000000000D+05  .167638063431D-07  .296878866804D+01 -.113621354103D-06
     .973086058883D+00  .240656250000D+03  .653593131429D+00 -.788639992878D-08
    -.126076680171D-09  .100000000000D+01  .174000000000D+04  .000000000000D+00
     .240000000000D+01  .000000000000D+00  .558793544769D-08  .220000000000D+02
     .720060000000D+05  .400000000000D+01
